start=new Date('2023-01-20T00:00:00.000Z').valueOf();
sats=[{"EPHEMERIS_TYPE":"0","RCS_SIZE":"LARGE","MEAN_MOTION_DDOT":"0.0000000000000","BSTAR":"-0.01690200000000","OBJECT_NAME":"STARLINK-5368","CLASSIFICATION_TYPE":"U","COUNTRY_CODE":"US","MEAN_ANOMALY":"63.9296","EPOCH":"2023-01-19T14:00:01.000224","RA_OF_ASC_NODE":"241.4033","DECAY_DATE":null,"ELEMENT_SET_NO":"999","SEMIMAJOR_AXIS":"6772.742","MEAN_ELEMENT_THEORY":"SGP4","OBJECT_ID":"2022-177W","TLE_LINE2":"2 54840  42.9941 241.4033 0001518 267.5266  63.9296 15.57599946  1307","FILE":"3754973","CENTER_NAME":"EARTH","SITE":"AFETR","PERIAPSIS":"393.579","LAUNCH_DATE":"2022-12-28","APOAPSIS":"395.636","REV_AT_EPOCH":"130","MEAN_MOTION_DOT":"-0.01155703","ARG_OF_PERICENTER":"267.5266","TIME_SYSTEM":"UTC","NORAD_CAT_ID":"54840","TLE_LINE1":"1 54840U 22177W   23019.58334491 -.01155703  00000-0 -16902-1 0  9995","GP_ID":"223501378","OBJECT_TYPE":"PAYLOAD","PERIOD":"92.450","ECCENTRICITY":"0.00015180","INCLINATION":"42.9941","REF_FRAME":"TEME","MEAN_MOTION":"15.57599946"},{"REV_AT_EPOCH":"370","APOAPSIS":"398.482","MEAN_MOTION_DOT":"-0.01162771","ARG_OF_PERICENTER":"279.3182","TIME_SYSTEM":"UTC","NORAD_CAT_ID":"54841","TLE_LINE1":"1 54841U 22177X   23019.91667824 -.01162771  00000-0 -17663-1 0  9990","GP_ID":"223507813","OBJECT_TYPE":"PAYLOAD","PERIOD":"92.509","ECCENTRICITY":"0.00014920","INCLINATION":"42.9945","REF_FRAME":"TEME","MEAN_MOTION":"15.56612610","EPHEMERIS_TYPE":"0","RCS_SIZE":"LARGE","MEAN_MOTION_DDOT":"0.0000000000000","BSTAR":"-0.01766300000000","OBJECT_NAME":"STARLINK-4659","CLASSIFICATION_TYPE":"U","COUNTRY_CODE":"US","EPOCH":"2023-01-19T22:00:00.999936","MEAN_ANOMALY":"117.9297","RA_OF_ASC_NODE":"239.4498","DECAY_DATE":null,"SEMIMAJOR_AXIS":"6775.606","ELEMENT_SET_NO":"999","OBJECT_ID":"2022-177X","MEAN_ELEMENT_THEORY":"SGP4","TLE_LINE2":"2 54841  42.9945 239.4498 0001492 279.3182 117.9297 15.56612610  3703","FILE":"3755264","CENTER_NAME":"EARTH","SITE":"AFETR","PERIAPSIS":"396.460","LAUNCH_DATE":"2022-12-28"},{"SITE":"AFETR","LAUNCH_DATE":"2022-12-28","PERIAPSIS":"393.375","FILE":"3754973","TLE_LINE2":"2 54842  42.9967 241.4004 0001524 261.9566  71.9952 15.57669015  1306","MEAN_ELEMENT_THEORY":"SGP4","OBJECT_ID":"2022-177Y","CENTER_NAME":"EARTH","MEAN_ANOMALY":"71.9952","EPOCH":"2023-01-19T14:00:01.000224","RA_OF_ASC_NODE":"241.4004","DECAY_DATE":null,"SEMIMAJOR_AXIS":"6772.542","ELEMENT_SET_NO":"999","RCS_SIZE":"MEDIUM","EPHEMERIS_TYPE":"0","OBJECT_NAME":"STARLINK-5387","MEAN_MOTION_DDOT":"0.0000000000000","BSTAR":"-0.01691000000000","CLASSIFICATION_TYPE":"U","COUNTRY_CODE":"US","INCLINATION":"42.9967","ECCENTRICITY":"0.00015240","REF_FRAME":"TEME","MEAN_MOTION":"15.57669015","TLE_LINE1":"1 54842U 22177Y   23019.58334491 -.01158933  00000-0 -16910-1 0  9994","NORAD_CAT_ID":"54842","GP_ID":"223499899","OBJECT_TYPE":"PAYLOAD","PERIOD":"92.446","APOAPSIS":"395.439","REV_AT_EPOCH":"130","MEAN_MOTION_DOT":"-0.01158933","ARG_OF_PERICENTER":"261.9566","TIME_SYSTEM":"UTC"},{"OBJECT_ID":"2022-177Z","MEAN_ELEMENT_THEORY":"SGP4","TLE_LINE2":"2 54843  42.9941 239.4441 0001487 277.6816 122.0172 15.56673619  3703","FILE":"3755264","CENTER_NAME":"EARTH","SITE":"AFETR","PERIAPSIS":"396.286","LAUNCH_DATE":"2022-12-28","EPHEMERIS_TYPE":"0","RCS_SIZE":"LARGE","BSTAR":"-0.01762400000000","MEAN_MOTION_DDOT":"0.0000000000000","OBJECT_NAME":"STARLINK-5304","CLASSIFICATION_TYPE":"U","COUNTRY_CODE":"US","EPOCH":"2023-01-19T22:00:00.999936","MEAN_ANOMALY":"122.0172","RA_OF_ASC_NODE":"239.4441","DECAY_DATE":null,"SEMIMAJOR_AXIS":"6775.429","ELEMENT_SET_NO":"999","NORAD_CAT_ID":"54843","TLE_LINE1":"1 54843U 22177Z   23019.91667824 -.01162859  00000-0 -17624-1 0  9996","GP_ID":"223507816","OBJECT_TYPE":"PAYLOAD","PERIOD":"92.505","ECCENTRICITY":"0.00014870","INCLINATION":"42.9941","REF_FRAME":"TEME","MEAN_MOTION":"15.56673619","APOAPSIS":"398.301","REV_AT_EPOCH":"370","MEAN_MOTION_DOT":"-0.01162859","ARG_OF_PERICENTER":"277.6816","TIME_SYSTEM":"UTC"},{"MEAN_ANOMALY":"90.6640","EPOCH":"2023-01-19T14:00:01.000224","DECAY_DATE":null,"RA_OF_ASC_NODE":"241.3498","ELEMENT_SET_NO":"999","SEMIMAJOR_AXIS":"6763.337","EPHEMERIS_TYPE":"0","RCS_SIZE":"LARGE","MEAN_MOTION_DDOT":"0.0000000000000","BSTAR":"-0.01327300000000","OBJECT_NAME":"STARLINK-5388","CLASSIFICATION_TYPE":"U","COUNTRY_CODE":"US","SITE":"AFETR","PERIAPSIS":"384.166","LAUNCH_DATE":"2022-12-28","OBJECT_ID":"2022-177AA","MEAN_ELEMENT_THEORY":"SGP4","TLE_LINE2":"2 54844  42.9952 241.3498 0001532 262.8542  90.6640 15.60850282  1305","FILE":"3754973","CENTER_NAME":"EARTH","APOAPSIS":"386.238","REV_AT_EPOCH":"130","MEAN_MOTION_DOT":"-0.01039217","ARG_OF_PERICENTER":"262.8542","TIME_SYSTEM":"UTC","ECCENTRICITY":"0.00015320","INCLINATION":"42.9952","REF_FRAME":"TEME","MEAN_MOTION":"15.60850282","NORAD_CAT_ID":"54844","TLE_LINE1":"1 54844U 22177AA  23019.58334491 -.01039217  00000-0 -13273-1 0  9998","GP_ID":"223500888","OBJECT_TYPE":"PAYLOAD","PERIOD":"92.257"},{"INCLINATION":"42.9952","ECCENTRICITY":"0.00015540","REF_FRAME":"TEME","MEAN_MOTION":"15.57637991","TLE_LINE1":"1 54845U 22177AB  23019.58334491 -.01156973  00000-0 -16898-1 0  9994","NORAD_CAT_ID":"54845","GP_ID":"223500149","OBJECT_TYPE":"PAYLOAD","PERIOD":"92.448","APOAPSIS":"395.550","REV_AT_EPOCH":"130","MEAN_MOTION_DOT":"-0.01156973","ARG_OF_PERICENTER":"264.8631","TIME_SYSTEM":"UTC","SITE":"AFETR","LAUNCH_DATE":"2022-12-28","PERIAPSIS":"393.445","FILE":"3754973","TLE_LINE2":"2 54845  42.9952 241.4008 0001554 264.8631  67.8886 15.57637991  1303","OBJECT_ID":"2022-177AB","MEAN_ELEMENT_THEORY":"SGP4","CENTER_NAME":"EARTH","MEAN_ANOMALY":"67.8886","EPOCH":"2023-01-19T14:00:01.000224","DECAY_DATE":null,"RA_OF_ASC_NODE":"241.4008","SEMIMAJOR_AXIS":"6772.632","ELEMENT_SET_NO":"999","RCS_SIZE":"LARGE","EPHEMERIS_TYPE":"0","OBJECT_NAME":"STARLINK-5082","MEAN_MOTION_DDOT":"0.0000000000000","BSTAR":"-0.01689800000000","CLASSIFICATION_TYPE":"U","COUNTRY_CODE":"US"},{"SITE":"AFETR","LAUNCH_DATE":"2022-12-28","PERIAPSIS":"395.805","FILE":"3755050","TLE_LINE2":"2 54846  42.9934 239.4271 0001451 275.0286 131.1925 15.56847954  3705","MEAN_ELEMENT_THEORY":"SGP4","OBJECT_ID":"2022-177AC","CENTER_NAME":"EARTH","MEAN_ANOMALY":"131.1925","EPOCH":"2023-01-19T22:00:00.999936","DECAY_DATE":null,"RA_OF_ASC_NODE":"239.4271","SEMIMAJOR_AXIS":"6774.923","ELEMENT_SET_NO":"999","RCS_SIZE":"LARGE","EPHEMERIS_TYPE":"0","OBJECT_NAME":"STARLINK-5360","MEAN_MOTION_DDOT":"0.0000000000000","BSTAR":"-0.01754400000000","CLASSIFICATION_TYPE":"U","COUNTRY_CODE":"US","INCLINATION":"42.9934","ECCENTRICITY":"0.00014510","REF_FRAME":"TEME","MEAN_MOTION":"15.56847954","TLE_LINE1":"1 54846U 22177AC  23019.91667824 -.01164961  00000-0 -17544-1 0  9996","NORAD_CAT_ID":"54846","GP_ID":"223502645","OBJECT_TYPE":"PAYLOAD","PERIOD":"92.495","REV_AT_EPOCH":"370","APOAPSIS":"397.771","MEAN_MOTION_DOT":"-0.01164961","ARG_OF_PERICENTER":"275.0286","TIME_SYSTEM":"UTC"},{"SITE":"AFETR","PERIAPSIS":"353.770","LAUNCH_DATE":"2022-12-28","MEAN_ELEMENT_THEORY":"SGP4","OBJECT_ID":"2022-177AD","TLE_LINE2":"2 54847  42.9960 240.1290 0001763 267.8765 217.6865 15.71378982  3667","FILE":"3754708","CENTER_NAME":"EARTH","DECAY_DATE":null,"RA_OF_ASC_NODE":"240.1290","SEMIMAJOR_AXIS":"6733.092","ELEMENT_SET_NO":"999","EPOCH":"2023-01-19T14:00:01.000224","MEAN_ANOMALY":"217.6865","CLASSIFICATION_TYPE":"U","COUNTRY_CODE":"US","EPHEMERIS_TYPE":"0","RCS_SIZE":"LARGE","BSTAR":"-0.00023539000000","MEAN_MOTION_DDOT":"0.0000000000000","OBJECT_NAME":"STARLINK-5061","MEAN_MOTION":"15.71378982","ECCENTRICITY":"0.00017630","INCLINATION":"42.9960","REF_FRAME":"TEME","OBJECT_TYPE":"PAYLOAD","PERIOD":"91.639","NORAD_CAT_ID":"54847","TLE_LINE1":"1 54847U 22177AD  23019.58334491 -.00031235  00000-0 -23539-3 0  9990","GP_ID":"223468254","ARG_OF_PERICENTER":"267.8765","TIME_SYSTEM":"UTC","REV_AT_EPOCH":"366","APOAPSIS":"356.144","MEAN_MOTION_DOT":"-0.00031235"},{"ARG_OF_PERICENTER":"264.8356","TIME_SYSTEM":"UTC","REV_AT_EPOCH":"366","APOAPSIS":"357.405","MEAN_MOTION_DOT":"0.00005268","MEAN_MOTION":"15.71357709","ECCENTRICITY":"0.00035450","INCLINATION":"43.0027","REF_FRAME":"TEME","OBJECT_TYPE":"PAYLOAD","PERIOD":"91.640","NORAD_CAT_ID":"54848","TLE_LINE1":"1 54848U 22177AE  23019.62776219  .00005268  00000-0  43596-4 0  9995","GP_ID":"223502674","DECAY_DATE":null,"RA_OF_ASC_NODE":"240.7979","ELEMENT_SET_NO":"999","SEMIMAJOR_AXIS":"6733.153","EPOCH":"2023-01-19T15:03:58.653216","MEAN_ANOMALY":"95.2107","CLASSIFICATION_TYPE":"U","COUNTRY_CODE":"US","EPHEMERIS_TYPE":"0","RCS_SIZE":"LARGE","BSTAR":"0.00004359600000","MEAN_MOTION_DDOT":"0.0000000000000","OBJECT_NAME":"STARLINK-5432","SITE":"AFETR","PERIAPSIS":"352.631","LAUNCH_DATE":"2022-12-28","MEAN_ELEMENT_THEORY":"SGP4","OBJECT_ID":"2022-177AE","TLE_LINE2":"2 54848  43.0027 240.7979 0003545 264.8356  95.2107 15.71357709  3660","FILE":"3755046","CENTER_NAME":"EARTH"},{"TIME_SYSTEM":"UTC","ARG_OF_PERICENTER":"267.8394","MEAN_MOTION_DOT":"-0.01157157","APOAPSIS":"395.149","REV_AT_EPOCH":"365","PERIOD":"92.440","OBJECT_TYPE":"PAYLOAD","GP_ID":"223468412","TLE_LINE1":"1 54849U 22177AF  23019.58334491 -.01157157  00000-0 -16817-1 0  9994","NORAD_CAT_ID":"54849","MEAN_MOTION":"15.57769577","REF_FRAME":"TEME","INCLINATION":"42.9950","ECCENTRICITY":"0.00015250","COUNTRY_CODE":"US","CLASSIFICATION_TYPE":"U","OBJECT_NAME":"STARLINK-5434","BSTAR":"-0.01681700000000","MEAN_MOTION_DDOT":"0.0000000000000","RCS_SIZE":"LARGE","EPHEMERIS_TYPE":"0","ELEMENT_SET_NO":"999","SEMIMAJOR_AXIS":"6772.251","DECAY_DATE":null,"RA_OF_ASC_NODE":"241.3883","MEAN_ANOMALY":"70.4272","EPOCH":"2023-01-19T14:00:01.000224","CENTER_NAME":"EARTH","TLE_LINE2":"2 54849  42.9950 241.3883 0001525 267.8394  70.4272 15.57769577  3657","FILE":"3754694","OBJECT_ID":"2022-177AF","MEAN_ELEMENT_THEORY":"SGP4","LAUNCH_DATE":"2022-12-28","PERIAPSIS":"393.083","SITE":"AFETR"}];
